NORAD_CAT_ID,OBJECT_NAME,OBJECT_TYPE,EPOCH,MEAN_MOTION,ECCENTRICITY,INCLINATION,RA_OF_ASC_NODE,ARG_OF_PERICENTER,MEAN_ANOMALY,BSTAR,MEAN_MOTION_DOT,MEAN_MOTION_DDOT,TLE_LINE0,TLE_LINE1,TLE_LINE2,SEMIMAJOR_AXIS,PERIOD,APOGEE,PERIGEE,DECAYED
50845.0,STARLINK-3230,PAYLOAD,2022-03-06 22:00:00,15.33192038,0.0001289,53.2172,271.6247,75.7349,130.3065,-0.01782,-0.0053998999999999,0.0,0 STARLINK-3230,1 50845U 22001AU  22065.91667824 -.00539990  00000-0 -17820-1 0  9991,2 50845  53.2172 271.6247 0001289  75.7349 130.3065 15.33192038 10495,6844.433000000001,93.922,467.18,465.416,0.0
50845.0,STARLINK-3230,PAYLOAD,2022-03-07 06:00:00,15.32810471,0.0001314,53.2174,270.0743,87.6014,159.0668,-0.02224,-0.00663689,0.0,0 STARLINK-3230,1 50845U 22001AU  22066.25001157 -.00663689  00000-0 -22240-1 0  9995,2 50845  53.2174 270.0743 0001314  87.6014 159.0668 15.32810471 10552,6845.569,93.945,468.333,466.534,0.0
50845.0,STARLINK-3230,PAYLOAD,2022-03-07 12:00:00,15.3245964,0.000132,53.2174,268.9112,86.8258,99.9778,-0.022433,-0.0066218,0.0,0 STARLINK-3230,1 50845U 22001AU  22066.50001157 -.00662180  00000-0 -22433-1 0  9992,2 50845  53.2174 268.9112 0001320  86.8258  99.9778 15.32459640  3694,6846.613,93.967,469.382,467.575,0.0
50845.0,STARLINK-3230,PAYLOAD,2022-03-07 22:00:00,15.31784694,0.0001381,53.2171,266.9757,82.7583,243.6241,-0.018746,-0.00543142,0.0,0 STARLINK-3230,1 50845U 22001AU  22066.91667824 -.00543142  00000-0 -18746-1 0  9994,2 50845  53.2171 266.9757 0001381  82.7583 243.6241 15.31784694  3633,6848.625,94.008,471.435,469.544,0.0
50845.0,STARLINK-3230,PAYLOAD,2022-03-08 06:00:02,15.31409851,0.000121,53.2175,265.4284,68.9996,296.3791,-0.023189,-0.00662235,0.0,0 STARLINK-3230,1 50845U 22001AU  22067.25002315 -.00662235  00000-0 -23189-1 0  9992,2 50845  53.2175 265.4284 0001210  68.9996 296.3791 15.31409851 10701,6849.7419999999975,94.031,472.436,470.778,0.0
50845.0,STARLINK-3230,PAYLOAD,2022-03-08 14:00:01,15.30941839,0.0001215,53.2177,263.8818,70.6822,333.0606,-0.023402,-0.00658848,0.0,0 STARLINK-3230,1 50845U 22001AU  22067.58334491 -.00658848  00000-0 -23402-1 0  9994,2 50845  53.2177 263.8818 0001215  70.6822 333.0606 15.30941839  3668,6851.138000000001,94.06,473.835,472.171,0.0
50845.0,STARLINK-3230,PAYLOAD,2022-03-08 22:00:00,15.30476019,0.0001284999999999,53.2176,262.3383,67.6913,13.9172,-0.023827,-0.00660974,0.0,0 STARLINK-3230,1 50845U 22001AU  22067.91667824 -.00660974  00000-0 -23827-1 0  9994,2 50845  53.2176 262.3383 0001285  67.6913  13.9172 15.30476019  3656,6852.528,94.088,475.274,473.513,0.0
50845.0,STARLINK-3230,PAYLOAD,2022-03-09 14:00:01,15.29541877,0.0001416,53.2178,259.2492,64.9799,90.6817,-0.024432,-0.00658554,0.0,0 STARLINK-3230,1 50845U 22001AU  22068.58334491 -.00658554  00000-0 -24432-1 0  9993,2 50845  53.2178 259.2492 0001416  64.9799  90.6817 15.29541877  3653,6855.318,94.146,478.154,476.212,0.0
50845.0,STARLINK-3230,PAYLOAD,2022-03-09 16:00:00,15.29375118,0.0001252999999999,53.2168,258.8622,80.2724,174.5132,-0.021755,-0.00588079,0.0,0 STARLINK-3230,1 50845U 22001AU  22068.66667824 -.00588079  00000-0 -21755-1 0  9990,2 50845  53.2168 258.8622 0001253  80.2724 174.5132 15.29375118 10923,6855.816,94.156,478.54,476.822,0.0
50845.0,STARLINK-3230,PAYLOAD,2022-03-09 22:00:01,15.29073913,0.0001423,53.2175,257.7089,70.7922,121.1176,-0.024706,-0.00656516,0.0,0 STARLINK-3230,1 50845U 22001AU  22068.91668981 -.00656516  00000-0 -24706-1 0  9994,2 50845  53.2175 257.7089 0001423  70.7922 121.1176 15.29073913  3655,6856.715999999999,94.175,479.557,477.606,0.0
50845.0,STARLINK-3230,PAYLOAD,2022-03-10 06:00:00,15.28534571,0.0001489,53.2169,256.165,71.0688,156.4417,-0.021128,-0.00552583,0.0,0 STARLINK-3230,1 50845U 22001AU  22069.25001157 -.00552583  00000-0 -21128-1 0  9992,2 50845  53.2169 256.1650 0001489  71.0688 156.4417 15.28534571 11008,6858.329000000002,94.208,481.215,479.173,0.0
50845.0,STARLINK-3230,PAYLOAD,2022-03-10 14:00:01,15.28062497,0.0001476,53.2167,254.6244,82.6734,179.9038,-0.021091,-0.00544272,0.0,0 STARLINK-3230,1 50845U 22001AU  22069.58334491 -.00544272  00000-0 -21091-1 0  9993,2 50845  53.2167 254.6244 0001476  82.6734 179.9038 15.28062497  3636,6859.7419999999975,94.237,482.619,480.594,0.0
50845.0,STARLINK-3230,PAYLOAD,2022-03-10 20:00:01,15.27792376,0.0001447,53.2174,253.4739,71.1552,127.3082,-0.025808,-0.00659075,0.0,0 STARLINK-3230,1 50845U 22001AU  22069.83334491 -.00659075  00000-0 -25808-1 0  9999,2 50845  53.2174 253.4739 0001447  71.1552 127.3082 15.27792376 11099,6860.55,94.254,483.408,481.423,0.0
50845.0,STARLINK-3230,PAYLOAD,2022-03-10 22:00:01,15.27674526,0.0001307,53.2175,253.0895,75.4256,221.6749,-0.025802,-0.00656707,0.0,0 STARLINK-3230,1 50845U 22001AU  22069.91668981 -.00656707  00000-0 -25802-1 0  9995,2 50845  53.2175 253.0895 0001307  75.4256 221.6749 15.27674526  3660,6860.903,94.261,483.665,481.871,0.0
50845.0,STARLINK-3230,PAYLOAD,2022-03-11 14:00:01,15.26743877,0.0001246,53.2178,250.0139,69.6612,294.6998,-0.02672,-0.00660692,0.0,0 STARLINK-3230,1 50845U 22001AU  22070.58334491 -.00660692  00000-0 -26720-1 0  9994,2 50845  53.2178 250.0139 0001246  69.6612 294.6998 15.26743877  3632,6863.691,94.318,486.411,484.701,0.0
50845.0,STARLINK-3230,PAYLOAD,2022-03-11 22:00:00,15.26274505,0.0001185,53.2175,248.4801,79.3715,317.8108,-0.026923,-0.00656575,0.0,0 STARLINK-3230,1 50845U 22001AU  22070.91667824 -.00656575  00000-0 -26923-1 0  9990,2 50845  53.2175 248.4801 0001185  79.3715 317.8108 15.26274505 11266,6865.098000000001,94.347,487.777,486.149,0.0
50845.0,STARLINK-3230,PAYLOAD,2022-03-12 14:00:01,15.25343931,0.0001311,53.2175,245.4111,68.7399,32.4027,-0.027883,-0.00660773,0.0,0 STARLINK-3230,1 50845U 22001AU  22071.58334491 -.00660773  00000-0 -27883-1 0  9996,2 50845  53.2175 245.4111 0001311  68.7399  32.4027 15.25343931  3651,6867.89,94.405,490.655,488.854,0.0
50845.0,STARLINK-3230,PAYLOAD,2022-03-12 22:00:00,15.24872466,0.0001288,53.2174,243.8805,78.3752,53.9075,-0.02791,-0.00652678,0.0,0 STARLINK-3230,1 50845U 22001AU  22071.91667824 -.00652678  00000-0 -27910-1 0  9998,2 50845  53.2174 243.8805 0001288  78.3752  53.9075 15.24872466 11418,6869.305,94.434,492.055,490.286,0.0
50845.0,STARLINK-3230,PAYLOAD,2022-03-13 14:00:01,15.23942802,0.0001439,53.2176,240.8182,69.7202,123.1585,-0.028967,-0.00658321,0.0,0 STARLINK-3230,1 50845U 22001AU  22072.58334491 -.00658321  00000-0 -28967-1 0  9997,2 50845  53.2176 240.8182 0001439  69.7202 123.1585 15.23942802  3673,6872.099,94.492,494.953,492.975,0.0
50845.0,STARLINK-3230,PAYLOAD,2022-03-13 20:00:01,15.23593685,0.0001327,53.2175,239.6726,80.6445,44.3786,-0.029337,-0.00659681,0.0,0 STARLINK-3230,1 50845U 22001AU  22072.83334491 -.00659681  00000-0 -29337-1 0  9997,2 50845  53.2175 239.6726 0001327  80.6445  44.3786 15.23593685 11553,6873.149,94.513,495.926,494.102,0.0
50845.0,STARLINK-3230,PAYLOAD,2022-03-13 22:00:01,15.23472523,0.0001355,53.2173,239.2906,83.3433,139.0566,-0.02906,-0.00651696,0.0,0 STARLINK-3230,1 50845U 22001AU  22072.91668981 -.00651696  00000-0 -29060-1 0  9991,2 50845  53.2173 239.2906 0001355  83.3433 139.0566 15.23472523  3652,6873.513000000001,94.521,496.309,494.447,0.0
50845.0,STARLINK-3230,PAYLOAD,2022-03-14 14:00:01,15.22542972,0.000138,53.2175,236.235,71.4291,208.2029,-0.030176,-0.00657772,0.0,0 STARLINK-3230,1 50845U 22001AU  22073.58335648 -.00657772  00000-0 -30176-1 0  9997,2 50845  53.2175 236.2350 0001380  71.4291 208.2029 15.22542972  3649,6876.31,94.579,499.124,497.226,0.0
50845.0,STARLINK-3230,PAYLOAD,2022-03-14 20:00:01,15.22191944,0.0001496999999999,53.2174,235.0919,65.6769,144.7754,-0.030403,-0.00655998,0.0,0 STARLINK-3230,1 50845U 22001AU  22073.83334491 -.00655998  00000-0 -30403-1 0  9991,2 50845  53.2174 235.0919 0001497  65.6769 144.7754 15.22191944  3648,6877.3669999999975,94.6,500.262,498.203,0.0
50845.0,STARLINK-3230,PAYLOAD,2022-03-14 22:00:00,15.22074535,0.0001242,53.2173,234.7106,90.7743,216.5694,-0.030414,-0.00654073,0.0,0 STARLINK-3230,1 50845U 22001AU  22073.91667824 -.00654073  00000-0 -30414-1 0  9994,2 50845  53.2173 234.7106 0001242  90.7743 216.5694 15.22074535 11725,6877.721,94.608,500.44,498.732,0.0
50845.0,STARLINK-3230,PAYLOAD,2022-03-15 02:00:01,15.21843369,0.0001288,53.2172,233.9473,84.1372,56.88399999999999,-0.030833,-0.00658244,0.0,0 STARLINK-3230,1 50845U 22001AU  22074.08334491 -.00658244  00000-0 -30833-1 0  9993,2 50845  53.2172 233.9473 0001288  84.1372  56.8840 15.21843369  3634,6878.418000000002,94.622,501.169,499.397,0.0
50845.0,STARLINK-3230,PAYLOAD,2022-03-15 22:00:00,15.20675662,0.0001162,53.2173,230.1405,84.2271,303.0786,-0.031763,-0.00655346,0.0,0 STARLINK-3230,1 50845U 22001AU  22074.91667824 -.00655346  00000-0 -31763-1 0  9997,2 50845  53.2173 230.1405 0001162  84.2271 303.0786 15.20675662 11878,6881.938,94.695,504.603,503.004,0.0
50845.0,STARLINK-3230,PAYLOAD,2022-03-16 14:00:01,15.19744315,0.0001336,53.2175,227.0984,64.3101,13.5009,-0.032851,-0.00666436,0.0,0 STARLINK-3230,1 50845U 22001AU  22075.58334491 -.00666436  00000-0 -32851-1 0  9993,2 50845  53.2175 227.0984 0001336  64.3101  13.5009 15.19744315  3637,6884.75,94.753,507.535,505.695,0.0
50845.0,STARLINK-3230,PAYLOAD,2022-03-16 20:00:01,15.19392606,0.0001209,53.2174,225.9599,85.6653,280.5068,-0.033019,-0.00663203,0.0,0 STARLINK-3230,1 50845U 22001AU  22075.83334491 -.00663203  00000-0 -33019-1 0  9997,2 50845  53.2174 225.9599 0001209  85.6653 280.5068 15.19392606 12017,6885.812,94.775,508.51,506.845,0.0
50845.0,STARLINK-3230,PAYLOAD,2022-03-17 14:00:01,15.18343267,0.0001512,53.2174,222.5446,58.8982,90.4661,-0.034106,-0.00664403,0.0,0 STARLINK-3230,1 50845U 22001AU  22076.58334491 -.00664403  00000-0 -34106-1 0  9991,2 50845  53.2174 222.5446 0001512  58.8982  90.4661 15.18343267  3650,6888.984,94.84,511.891,509.8080000000001,0.0
